[{"OBJECT_NAME":"STARLINK-11138 [DTC]","OBJECT_ID":"2024-107E","EPOCH":"2025-11-23T11:19:43.759200","MEAN_MOTION":15.69718258,"ECCENTRICITY":0.0001149,"INCLINATION":53.1585,"RA_OF_ASC_NODE":54.8511,"ARG_OF_PERICENTER":76.3835,"MEAN_ANOMALY":283.7311,"EPHEMERIS_TYPE":0,"CLASSIFICATION_TYPE":"U","NORAD_CAT_ID":59949,"ELEMENT_SET_NO":999,"REV_AT_EPOCH":8552,"BSTAR":1.1295e-5,"MEAN_MOTION_DOT":7.8e-6,"MEAN_MOTION_DDOT":0},{"OBJECT_NAME":"STARLINK-11130 [DTC]","OBJECT_ID":"2024-107F","EPOCH":"2025-11-23T13:12:35.805024","MEAN_MOTION":15.69720176,"ECCENTRICITY":0.0001137,"INCLINATION":53.159,"RA_OF_ASC_NODE":54.6376,"ARG_OF_PERICENTER":97.1258,"MEAN_ANOMALY":262.9889,"EPHEMERIS_TYPE":0,"CLASSIFICATION_TYPE":"U","NORAD_CAT_ID":59950,"ELEMENT_SET_NO":999,"REV_AT_EPOCH":8547,"BSTAR":1.9178e-5,"MEAN_MOTION_DOT":1.736e-5,"MEAN_MOTION_DDOT":0},{"OBJECT_NAME":"STARLINK-11124 [DTC]","OBJECT_ID":"2024-107H","EPOCH":"2025-11-23T11:26:48.594048","MEAN_MOTION":15.69688153,"ECCENTRICITY":0.000157,"INCLINATION":53.16,"RA_OF_ASC_NODE":54.8859,"ARG_OF_PERICENTER":89.1849,"MEAN_ANOMALY":270.9349,"EPHEMERIS_TYPE":0,"CLASSIFICATION_TYPE":"U","NORAD_CAT_ID":59952,"ELEMENT_SET_NO":999,"REV_AT_EPOCH":8553,"BSTAR":4.768e-5,"MEAN_MOTION_DOT":5.186e-5,"MEAN_MOTION_DDOT":0},{"OBJECT_NAME":"STARLINK-11143 [DTC]","OBJECT_ID":"2024-107J","EPOCH":"2025-11-23T12:44:23.413056","MEAN_MOTION":15.69690514,"ECCENTRICITY":0.0001265,"INCLINATION":53.1594,"RA_OF_ASC_NODE":54.5032,"ARG_OF_PERICENTER":127.2319,"MEAN_ANOMALY":232.8815,"EPHEMERIS_TYPE":0,"CLASSIFICATION_TYPE":"U","NORAD_CAT_ID":59953,"ELEMENT_SET_NO":999,"REV_AT_EPOCH":8547,"BSTAR":-3.6549e-5,"MEAN_MOTION_DOT":-5.01e-5,"MEAN_MOTION_DDOT":0},{"OBJECT_NAME":"STARLINK-11133 [DTC]","OBJECT_ID":"2024-107K","EPOCH":"2025-11-23T12:37:16.303296","MEAN_MOTION":15.69741124,"ECCENTRICITY":0.0001184,"INCLINATION":53.1589,"RA_OF_ASC_NODE":54.4746,"ARG_OF_PERICENTER":83.6487,"MEAN_ANOMALY":276.4666,"EPHEMERIS_TYPE":0,"CLASSIFICATION_TYPE":"U","NORAD_CAT_ID":59954,"ELEMENT_SET_NO":999,"REV_AT_EPOCH":8547,"BSTAR":-3.7161e-5,"MEAN_MOTION_DOT":-5.094e-5,"MEAN_MOTION_DDOT":0},{"OBJECT_NAME":"STARLINK-11144 [DTC]","OBJECT_ID":"2024-107L","EPOCH":"2025-11-23T12:30:13.453920","MEAN_MOTION":15.69714093,"ECCENTRICITY":0.0001402,"INCLINATION":53.1592,"RA_OF_ASC_NODE":54.4488,"ARG_OF_PERICENTER":52.9348,"MEAN_ANOMALY":307.1798,"EPHEMERIS_TYPE":0,"CLASSIFICATION_TYPE":"U","NORAD_CAT_ID":59955,"ELEMENT_SET_NO":999,"REV_AT_EPOCH":8553,"BSTAR":7.9778e-6,"MEAN_MOTION_DOT":3.78e-6,"MEAN_MOTION_DDOT":0},{"OBJECT_NAME":"STARLINK-11134 [DTC]","OBJECT_ID":"2024-107M","EPOCH":"2025-11-23T12:23:09.545280","MEAN_MOTION":15.69713409,"ECCENTRICITY":0.0001665,"INCLINATION":53.1596,"RA_OF_ASC_NODE":54.4106,"ARG_OF_PERICENTER":57.4625,"MEAN_ANOMALY":302.6554,"EPHEMERIS_TYPE":0,"CLASSIFICATION_TYPE":"U","NORAD_CAT_ID":59956,"ELEMENT_SET_NO":999,"REV_AT_EPOCH":8540,"BSTAR":-2.5419e-7,"MEAN_MOTION_DOT":-6.2e-6,"MEAN_MOTION_DDOT":0},{"OBJECT_NAME":"STARLINK-11142 [DTC]","OBJECT_ID":"2024-107N","EPOCH":"2025-11-23T10:44:24.976320","MEAN_MOTION":15.69705083,"ECCENTRICITY":0.0001364,"INCLINATION":53.1591,"RA_OF_ASC_NODE":54.6907,"ARG_OF_PERICENTER":71.2995,"MEAN_ANOMALY":288.8171,"EPHEMERIS_TYPE":0,"CLASSIFICATION_TYPE":"U","NORAD_CAT_ID":59957,"ELEMENT_SET_NO":999,"REV_AT_EPOCH":8547,"BSTAR":8.4786e-6,"MEAN_MOTION_DOT":4.38e-6,"MEAN_MOTION_DDOT":0},{"OBJECT_NAME":"STARLINK-31995","OBJECT_ID":"2024-107P","EPOCH":"2025-11-23T22:07:34.028832","MEAN_MOTION":15.30185531,"ECCENTRICITY":8.01e-5,"INCLINATION":53.1592,"RA_OF_ASC_NODE":196.7666,"ARG_OF_PERICENTER":83.9169,"MEAN_ANOMALY":276.1923,"EPHEMERIS_TYPE":0,"CLASSIFICATION_TYPE":"U","NORAD_CAT_ID":59958,"ELEMENT_SET_NO":999,"REV_AT_EPOCH":8240,"BSTAR":5.3843e-5,"MEAN_MOTION_DOT":1.235e-5,"MEAN_MOTION_DDOT":0},{"OBJECT_NAME":"STARLINK-31989","OBJECT_ID":"2024-107Q","EPOCH":"2025-11-23T21:58:26.898240","MEAN_MOTION":15.3020044,"ECCENTRICITY":0.0001009,"INCLINATION":53.1571,"RA_OF_ASC_NODE":196.7263,"ARG_OF_PERICENTER":76.9861,"MEAN_ANOMALY":283.1253,"EPHEMERIS_TYPE":0,"CLASSIFICATION_TYPE":"U","NORAD_CAT_ID":59959,"ELEMENT_SET_NO":999,"REV_AT_EPOCH":8360,"BSTAR":0.00020025,"MEAN_MOTION_DOT":5.576e-5,"MEAN_MOTION_DDOT":0},{"OBJECT_NAME":"STARLINK-31856","OBJECT_ID":"2024-107R","EPOCH":"2025-11-23T22:03:00.306720","MEAN_MOTION":15.30191964,"ECCENTRICITY":0.0001347,"INCLINATION":53.1595,"RA_OF_ASC_NODE":196.7429,"ARG_OF_PERICENTER":79.0461,"MEAN_ANOMALY":281.0691,"EPHEMERIS_TYPE":0,"CLASSIFICATION_TYPE":"U","NORAD_CAT_ID":59960,"ELEMENT_SET_NO":999,"REV_AT_EPOCH":8360,"BSTAR":0.00010511,"MEAN_MOTION_DOT":2.754e-5,"MEAN_MOTION_DDOT":0},{"OBJECT_NAME":"STARLINK-31993","OBJECT_ID":"2024-107S","EPOCH":"2025-11-23T22:16:41.111040","MEAN_MOTION":15.30201147,"ECCENTRICITY":0.00012,"INCLINATION":53.1574,"RA_OF_ASC_NODE":196.8017,"ARG_OF_PERICENTER":101.8046,"MEAN_ANOMALY":258.3089,"EPHEMERIS_TYPE":0,"CLASSIFICATION_TYPE":"U","NORAD_CAT_ID":59961,"ELEMENT_SET_NO":999,"REV_AT_EPOCH":8354,"BSTAR":0.00020455,"MEAN_MOTION_DOT":5.704e-5,"MEAN_MOTION_DDOT":0},{"OBJECT_NAME":"STARLINK-31980","OBJECT_ID":"2024-107T","EPOCH":"2025-11-23T20:53:15.945216","MEAN_MOTION":15.30178488,"ECCENTRICITY":0.000143,"INCLINATION":53.1605,"RA_OF_ASC_NODE":197.1488,"ARG_OF_PERICENTER":113.2568,"MEAN_ANOMALY":246.8584,"EPHEMERIS_TYPE":0,"CLASSIFICATION_TYPE":"U","NORAD_CAT_ID":59962,"ELEMENT_SET_NO":999,"REV_AT_EPOCH":8359,"BSTAR":0.00013435,"MEAN_MOTION_DOT":3.619e-5,"MEAN_MOTION_DDOT":0},{"OBJECT_NAME":"STARLINK-31991","OBJECT_ID":"2024-107U","EPOCH":"2025-11-23T22:12:07.071840","MEAN_MOTION":15.30196764,"ECCENTRICITY":0.0001255,"INCLINATION":53.1593,"RA_OF_ASC_NODE":196.7811,"ARG_OF_PERICENTER":88.1846,"MEAN_ANOMALY":271.9298,"EPHEMERIS_TYPE":0,"CLASSIFICATION_TYPE":"U","NORAD_CAT_ID":59963,"ELEMENT_SET_NO":999,"REV_AT_EPOCH":8360,"BSTAR":9.1168e-5,"MEAN_MOTION_DOT":2.342e-5,"MEAN_MOTION_DDOT":0},{"OBJECT_NAME":"STARLINK-31979","OBJECT_ID":"2024-107V","EPOCH":"2025-11-24T01:30:52.409376","MEAN_MOTION":15.30173572,"ECCENTRICITY":0.000125,"INCLINATION":53.1596,"RA_OF_ASC_NODE":196.2188,"ARG_OF_PERICENTER":85.1329,"MEAN_ANOMALY":274.9815,"EPHEMERIS_TYPE":0,"CLASSIFICATION_TYPE":"U","NORAD_CAT_ID":59964,"ELEMENT_SET_NO":999,"REV_AT_EPOCH":8357,"BSTAR":2.1593e-5,"MEAN_MOTION_DOT":2.8e-6,"MEAN_MOTION_DDOT":0},{"OBJECT_NAME":"STARLINK-31978","OBJECT_ID":"2024-111A","EPOCH":"2025-11-23T21:50:52.055808","MEAN_MOTION":15.3019004,"ECCENTRICITY":0.0001673,"INCLINATION":53.1569,"RA_OF_ASC_NODE":207.2911,"ARG_OF_PERICENTER":67.5537,"MEAN_ANOMALY":292.5641,"EPHEMERIS_TYPE":0,"CLASSIFICATION_TYPE":"U","NORAD_CAT_ID":60016,"ELEMENT_SET_NO":999,"REV_AT_EPOCH":8273,"BSTAR":0.0007421,"MEAN_MOTION_DOT":0.00021677,"MEAN_MOTION_DDOT":0}]
