STARLINK-11138 [DTC]    
1 59949U 24107E   25327.47203425  .00000780  00000+0  11295-4 0  9992
2 59949  53.1585  54.8511 0001149  76.3835 283.7311 15.69718258 85523
STARLINK-11130 [DTC]    
1 59950U 24107F   25327.55041441  .00001736  00000+0  19178-4 0  9991
2 59950  53.1590  54.6376 0001137  97.1258 262.9889 15.69720176 85470
STARLINK-11124 [DTC]    
1 59952U 24107H   25327.47695132  .00005186  00000+0  47680-4 0  9998
2 59952  53.1600  54.8859 0001570  89.1849 270.9349 15.69688153 85535
STARLINK-11143 [DTC]    
1 59953U 24107J   25327.53082654 -.00005010  00000+0 -36549-4 0  9995
2 59953  53.1594  54.5032 0001265 127.2319 232.8815 15.69690514 85477
STARLINK-11133 [DTC]    
1 59954U 24107K   25327.52588314 -.00005094  00000+0 -37161-4 0  9992
2 59954  53.1589  54.4746 0001184  83.6487 276.4666 15.69741124 85476
STARLINK-11144 [DTC]    
1 59955U 24107L   25327.52098905  .00000378  00000+0  79778-5 0  9994
2 59955  53.1592  54.4488 0001402  52.9348 307.1798 15.69714093 85532
STARLINK-11134 [DTC]    
1 59956U 24107M   25327.51608270 -.00000620  00000+0 -25419-6 0  9992
2 59956  53.1596  54.4106 0001665  57.4625 302.6554 15.69713409 85409
STARLINK-11142 [DTC]    
1 59957U 24107N   25327.44751130  .00000438  00000+0  84786-5 0  9995
2 59957  53.1591  54.6907 0001364  71.2995 288.8171 15.69705083 85472
STARLINK-31995          
1 59958U 24107P   25327.92192163  .00001235  00000+0  53843-4 0  9999
2 59958  53.1592 196.7666 0000801  83.9169 276.1923 15.30185531 82405
STARLINK-31989          
1 59959U 24107Q   25327.91558910  .00005576  00000+0  20025-3 0  9992
2 59959  53.1571 196.7263 0001009  76.9861 283.1253 15.30200440 83602
STARLINK-31856          
1 59960U 24107R   25327.91875355  .00002754  00000+0  10511-3 0  9993
2 59960  53.1595 196.7429 0001347  79.0461 281.0691 15.30191964 83602
STARLINK-31993          
1 59961U 24107S   25327.92825360  .00005704  00000+0  20455-3 0  9992
2 59961  53.1574 196.8017 0001200 101.8046 258.3089 15.30201147 83541
STARLINK-31980          
1 59962U 24107T   25327.87032344  .00003619  00000+0  13435-3 0  9992
2 59962  53.1605 197.1488 0001430 113.2568 246.8584 15.30178488 83592
STARLINK-31991          
1 59963U 24107U   25327.92508185  .00002342  00000+0  91168-4 0  9992
2 59963  53.1593 196.7811 0001255  88.1846 271.9298 15.30196764 83608
STARLINK-31979          
1 59964U 24107V   25328.06310659  .00000280  00000+0  21593-4 0  9990
2 59964  53.1596 196.2188 0001250  85.1329 274.9815 15.30173572 83578
STARLINK-31978          
1 60016U 24111A   25327.91032472  .00021677  00000+0  74210-3 0  9998
2 60016  53.1569 207.2911 0001673  67.5537 292.5641 15.30190040 82738
